E-KAGAKU-1              
1 65943U 98067XQ  26074.14448989  .00263975  00000+0  11862-2 0  9994
2 65943  51.6231  29.0333 0005515 112.2622 247.8966 15.82800917 24367
HRC MONOBLOCK CAMERA    
1 66052U 98067XR  26074.13663479  .00058396  00000+0  63548-3 0  9996
2 66052  51.6284  38.0288 0003821 116.7732 243.3653 15.62854437 23249
HTV-X1                  
1 66174U 25241A   26073.34423291  .00013614  00000+0  58534-3 0  9996
2 66174  51.6357  50.7100 0005742 187.4106 172.6788 15.22910308 21666
SZ-21 MODULE            
1 66515U 25246C   26073.59336335  .00048778  00000+0  41125-3 0  9996
2 66515  41.4735 173.1648 0000910 309.7124  50.3637 15.68965402 18846
SHENZHOU-22             
1 66645U 25272A   26073.00269975  .00029757  00000+0  34787-3 0  9992
2 66645  41.4663 181.9138 0006689 299.3968  60.6202 15.60904690267527
SOYUZ-MS 28             
1 66664U 25275A   26074.19246378  .00009711  00000+0  18872-3 0  9994
2 66664  51.6330  45.1519 0006363 192.7288 167.3540 15.48288531554520
DUPLEX                  
1 66906U 98067XS  26074.17220984  .00034193  00000+0  47619-3 0  9998
2 66906  51.6292  42.0190 0002751 137.6554 222.4650 15.56607115 15987
ISS OBJECT XT           
1 66907U 98067XT  26074.05627168  .00202137  00000+0  15333-2 0  9993
2 66907  51.6247  38.2251 0004688 115.4311 244.7173 15.71174897 16025
ISS OBJECT XU           
1 66908U 98067XU  26074.05401917  .00202702  00000+0  15285-2 0  9990
2 66908  51.6248  38.2054 0004987 118.2627 241.8875 15.71313389 16029
SILVERSAT               
1 66909U 98067XV  26074.17151702  .00265810  00000+0  17149-2 0  9998
2 66909  51.6239  36.7379 0005444 117.7755 242.3797 15.74772085 16055
ISS OBJECT XW           
1 66910U 98067XW  26074.18095813  .00173075  00000+0  13629-2 0  9991
2 66910  51.6239  37.5499 0005353 120.8061 239.3464 15.70370803 16047
ISS OBJECT XX           
1 66911U 98067XX  26074.15640945  .00337340  00000+0  18160-2 0  9993
2 66911  51.6207  35.8642 0006906 121.9057 238.2617 15.78660751 16057
