CCSDS_OMM_VERS = 2.0
CREATION_DATE  = 
ORIGINATOR     = 

OBJECT_NAME    = E-KAGAKU-1
OBJECT_ID      = 1998-067XQ
CENTER_NAME    = EARTH
REF_FRAME      = TEME
TIME_SYSTEM    = UTC
MEAN_ELEMENT_THEORY = SGP/SGP4

EPOCH          = 2026-03-15T03:28:03.926496
MEAN_MOTION    = 15.82800917
ECCENTRICITY   = .00055159
INCLINATION    = 51.6231
RA_OF_ASC_NODE = 29.0333
ARG_OF_PERICENTER = 112.2622
MEAN_ANOMALY   = 247.8966

EPHEMERIS_TYPE = 0
CLASSIFICATION_TYPE = U
NORAD_CAT_ID   = 65943
ELEMENT_SET_NO = 999
REV_AT_EPOCH   = 2436
BSTAR          = .11861899E-2
MEAN_MOTION_DOT = .263975E-2
MEAN_MOTION_DDOT = 0

CCSDS_OMM_VERS = 2.0
CREATION_DATE  = 
ORIGINATOR     = 

OBJECT_NAME    = HRC MONOBLOCK CAMERA
OBJECT_ID      = 1998-067XR
CENTER_NAME    = EARTH
REF_FRAME      = TEME
TIME_SYSTEM    = UTC
MEAN_ELEMENT_THEORY = SGP/SGP4

EPOCH          = 2026-03-15T03:16:45.245856
MEAN_MOTION    = 15.62854437
ECCENTRICITY   = .00038214
INCLINATION    = 51.6284
RA_OF_ASC_NODE = 38.0288
ARG_OF_PERICENTER = 116.7732
MEAN_ANOMALY   = 243.3653

EPHEMERIS_TYPE = 0
CLASSIFICATION_TYPE = U
NORAD_CAT_ID   = 66052
ELEMENT_SET_NO = 999
REV_AT_EPOCH   = 2324
BSTAR          = .63548424E-3
MEAN_MOTION_DOT = .58396E-3
MEAN_MOTION_DDOT = 0

CCSDS_OMM_VERS = 2.0
CREATION_DATE  = 
ORIGINATOR     = 

OBJECT_NAME    = HTV-X1
OBJECT_ID      = 2025-241A
CENTER_NAME    = EARTH
REF_FRAME      = TEME
TIME_SYSTEM    = UTC
MEAN_ELEMENT_THEORY = SGP/SGP4

EPOCH          = 2026-03-14T08:15:41.723424
MEAN_MOTION    = 15.22910308
ECCENTRICITY   = .00057421
INCLINATION    = 51.6357
RA_OF_ASC_NODE = 50.7100
ARG_OF_PERICENTER = 187.4106
MEAN_ANOMALY   = 172.6788

EPHEMERIS_TYPE = 0
CLASSIFICATION_TYPE = U
NORAD_CAT_ID   = 66174
ELEMENT_SET_NO = 999
REV_AT_EPOCH   = 2166
BSTAR          = .58534113E-3
MEAN_MOTION_DOT = .13614E-3
MEAN_MOTION_DDOT = 0

CCSDS_OMM_VERS = 2.0
CREATION_DATE  = 
ORIGINATOR     = 

OBJECT_NAME    = SZ-21 MODULE
OBJECT_ID      = 2025-246C
CENTER_NAME    = EARTH
REF_FRAME      = TEME
TIME_SYSTEM    = UTC
MEAN_ELEMENT_THEORY = SGP/SGP4

EPOCH          = 2026-03-14T14:14:26.593440
MEAN_MOTION    = 15.68965402
ECCENTRICITY   = .00009103
INCLINATION    = 41.4735
RA_OF_ASC_NODE = 173.1648
ARG_OF_PERICENTER = 309.7124
MEAN_ANOMALY   = 50.3637

EPHEMERIS_TYPE = 0
CLASSIFICATION_TYPE = U
NORAD_CAT_ID   = 66515
ELEMENT_SET_NO = 999
REV_AT_EPOCH   = 1884
BSTAR          = .41125442E-3
MEAN_MOTION_DOT = .48778E-3
MEAN_MOTION_DDOT = 0

CCSDS_OMM_VERS = 2.0
CREATION_DATE  = 
ORIGINATOR     = 

OBJECT_NAME    = SHENZHOU-22
OBJECT_ID      = 2025-272A
CENTER_NAME    = EARTH
REF_FRAME      = TEME
TIME_SYSTEM    = UTC
MEAN_ELEMENT_THEORY = SGP/SGP4

EPOCH          = 2026-03-14T00:03:53.258400
MEAN_MOTION    = 15.60904690
ECCENTRICITY   = .0006689
INCLINATION    = 41.4663
RA_OF_ASC_NODE = 181.9138
ARG_OF_PERICENTER = 299.3968
MEAN_ANOMALY   = 60.6202

EPHEMERIS_TYPE = 0
CLASSIFICATION_TYPE = U
NORAD_CAT_ID   = 66645
ELEMENT_SET_NO = 999
REV_AT_EPOCH   = 26752
BSTAR          = .34787289E-3
MEAN_MOTION_DOT = .29757E-3
MEAN_MOTION_DDOT = 0

CCSDS_OMM_VERS = 2.0
CREATION_DATE  = 
ORIGINATOR     = 

OBJECT_NAME    = SOYUZ-MS 28
OBJECT_ID      = 2025-275A
CENTER_NAME    = EARTH
REF_FRAME      = TEME
TIME_SYSTEM    = UTC
MEAN_ELEMENT_THEORY = SGP/SGP4

EPOCH          = 2026-03-15T04:37:08.870592
MEAN_MOTION    = 15.48288531
ECCENTRICITY   = .00063636
INCLINATION    = 51.6330
RA_OF_ASC_NODE = 45.1519
ARG_OF_PERICENTER = 192.7288
MEAN_ANOMALY   = 167.3540

EPHEMERIS_TYPE = 0
CLASSIFICATION_TYPE = U
NORAD_CAT_ID   = 66664
ELEMENT_SET_NO = 999
REV_AT_EPOCH   = 55452
BSTAR          = .1887181E-3
MEAN_MOTION_DOT = .9711E-4
MEAN_MOTION_DDOT = 0

CCSDS_OMM_VERS = 2.0
CREATION_DATE  = 
ORIGINATOR     = 

OBJECT_NAME    = DUPLEX
OBJECT_ID      = 1998-067XS
CENTER_NAME    = EARTH
REF_FRAME      = TEME
TIME_SYSTEM    = UTC
MEAN_ELEMENT_THEORY = SGP/SGP4

EPOCH          = 2026-03-15T04:07:58.930176
MEAN_MOTION    = 15.56607115
ECCENTRICITY   = .00027512
INCLINATION    = 51.6292
RA_OF_ASC_NODE = 42.0190
ARG_OF_PERICENTER = 137.6554
MEAN_ANOMALY   = 222.4650

EPHEMERIS_TYPE = 0
CLASSIFICATION_TYPE = U
NORAD_CAT_ID   = 66906
ELEMENT_SET_NO = 999
REV_AT_EPOCH   = 1598
BSTAR          = .47618778E-3
MEAN_MOTION_DOT = .34193E-3
MEAN_MOTION_DDOT = 0

CCSDS_OMM_VERS = 2.0
CREATION_DATE  = 
ORIGINATOR     = 

OBJECT_NAME    = ISS OBJECT XT
OBJECT_ID      = 1998-067XT
CENTER_NAME    = EARTH
REF_FRAME      = TEME
TIME_SYSTEM    = UTC
MEAN_ELEMENT_THEORY = SGP/SGP4

EPOCH          = 2026-03-15T01:21:01.873152
MEAN_MOTION    = 15.71174897
ECCENTRICITY   = .00046884
INCLINATION    = 51.6247
RA_OF_ASC_NODE = 38.2251
ARG_OF_PERICENTER = 115.4311
MEAN_ANOMALY   = 244.7173

EPHEMERIS_TYPE = 0
CLASSIFICATION_TYPE = U
NORAD_CAT_ID   = 66907
ELEMENT_SET_NO = 999
REV_AT_EPOCH   = 1602
BSTAR          = .15332922E-2
MEAN_MOTION_DOT = .202137E-2
MEAN_MOTION_DDOT = 0

CCSDS_OMM_VERS = 2.0
CREATION_DATE  = 
ORIGINATOR     = 

OBJECT_NAME    = ISS OBJECT XU
OBJECT_ID      = 1998-067XU
CENTER_NAME    = EARTH
REF_FRAME      = TEME
TIME_SYSTEM    = UTC
MEAN_ELEMENT_THEORY = SGP/SGP4

EPOCH          = 2026-03-15T01:17:47.256288
MEAN_MOTION    = 15.71313389
ECCENTRICITY   = .00049873
INCLINATION    = 51.6248
RA_OF_ASC_NODE = 38.2054
ARG_OF_PERICENTER = 118.2627
MEAN_ANOMALY   = 241.8875

EPHEMERIS_TYPE = 0
CLASSIFICATION_TYPE = U
NORAD_CAT_ID   = 66908
ELEMENT_SET_NO = 999
REV_AT_EPOCH   = 1602
BSTAR          = .15284504E-2
MEAN_MOTION_DOT = .202702E-2
MEAN_MOTION_DDOT = 0

CCSDS_OMM_VERS = 2.0
CREATION_DATE  = 
ORIGINATOR     = 

OBJECT_NAME    = SILVERSAT
OBJECT_ID      = 1998-067XV
CENTER_NAME    = EARTH
REF_FRAME      = TEME
TIME_SYSTEM    = UTC
MEAN_ELEMENT_THEORY = SGP/SGP4

EPOCH          = 2026-03-15T04:06:59.070528
MEAN_MOTION    = 15.74772085
ECCENTRICITY   = .00054443
INCLINATION    = 51.6239
RA_OF_ASC_NODE = 36.7379
ARG_OF_PERICENTER = 117.7755
MEAN_ANOMALY   = 242.3797

EPHEMERIS_TYPE = 0
CLASSIFICATION_TYPE = U
NORAD_CAT_ID   = 66909
ELEMENT_SET_NO = 999
REV_AT_EPOCH   = 1605
BSTAR          = .171494E-2
MEAN_MOTION_DOT = .26581E-2
MEAN_MOTION_DDOT = 0

CCSDS_OMM_VERS = 2.0
CREATION_DATE  = 
ORIGINATOR     = 

OBJECT_NAME    = ISS OBJECT XW
OBJECT_ID      = 1998-067XW
CENTER_NAME    = EARTH
REF_FRAME      = TEME
TIME_SYSTEM    = UTC
MEAN_ELEMENT_THEORY = SGP/SGP4

EPOCH          = 2026-03-15T04:20:34.782432
MEAN_MOTION    = 15.70370803
ECCENTRICITY   = .00053536
INCLINATION    = 51.6239
RA_OF_ASC_NODE = 37.5499
ARG_OF_PERICENTER = 120.8061
MEAN_ANOMALY   = 239.3464

EPHEMERIS_TYPE = 0
CLASSIFICATION_TYPE = U
NORAD_CAT_ID   = 66910
ELEMENT_SET_NO = 999
REV_AT_EPOCH   = 1604
BSTAR          = .13629257E-2
MEAN_MOTION_DOT = .173075E-2
MEAN_MOTION_DDOT = 0

CCSDS_OMM_VERS = 2.0
CREATION_DATE  = 
ORIGINATOR     = 

OBJECT_NAME    = ISS OBJECT XX
OBJECT_ID      = 1998-067XX
CENTER_NAME    = EARTH
REF_FRAME      = TEME
TIME_SYSTEM    = UTC
MEAN_ELEMENT_THEORY = SGP/SGP4

EPOCH          = 2026-03-15T03:45:13.776480
MEAN_MOTION    = 15.78660751
ECCENTRICITY   = .00069062
INCLINATION    = 51.6207
RA_OF_ASC_NODE = 35.8642
ARG_OF_PERICENTER = 121.9057
MEAN_ANOMALY   = 238.2617

EPHEMERIS_TYPE = 0
CLASSIFICATION_TYPE = U
NORAD_CAT_ID   = 66911
ELEMENT_SET_NO = 999
REV_AT_EPOCH   = 1605
BSTAR          = .1815978E-2
MEAN_MOTION_DOT = .33734E-2
MEAN_MOTION_DDOT = 0

